CZ-2C R/B               
1 54039U 22132E   25358.89621148  .00034612  00000+0  50113-3 0  9991
2 54039  97.2945 355.3331 0021134  15.5852 344.6048 15.55550091178729
GSLV R/B                
1 54149U 22138AN  25358.82780594  .00002846  00000+0  24871-3 0  9999
2 54149  87.3822 191.4251 0024044  66.0095 294.3649 14.96189152172731
XRISM                   
1 57800U 23137A   25358.53137821  .00006481  00000+0  37850-3 0  9993
2 57800  31.0030  49.4069 0007627   3.7982 356.2713 15.10453716126416
ACS3                    
1 59588U 24077B   25358.88403302  .00026110  00000+0  22149-1 0  9994
2 59588  97.2601 311.7768 0074622 308.3116  51.1351 13.86037290 83824
SZ-21 MODULE            
1 66515U 25246C   25358.55337457  .00029010  00000+0  31177-3 0  9997
2 66515  41.4769 303.9494 0004724 323.7646  36.2873 15.63097156  6295
